{
    "links": {
        "self": "http://www.neowsapp.com/rest/v1/neo/3346475?api_key=iIulBulltgU6a56xZRHN4H3l9WmuAYTsLGpBGhQ2"
    },
    "id": "3346475",
    "neo_reference_id": "3346475",
    "name": "(2006 SN198)",
    "designation": "2006 SN198",
    "nasa_jpl_url": "http://ssd.jpl.nasa.gov/sbdb.cgi?sstr=3346475",
    "absolute_magnitude_h": 26.1,
    "estimated_diameter": {
        "kilometers": {
            "estimated_diameter_min": 0.0160160338,
            "estimated_diameter_max": 0.0358129403
        },
        "meters": {
            "estimated_diameter_min": 16.0160337979,
            "estimated_diameter_max": 35.8129403019
        },
        "miles": {
            "estimated_diameter_min": 0.0099518989,
            "estimated_diameter_max": 0.0222531225
        },
        "feet": {
            "estimated_diameter_min": 52.5460443254,
            "estimated_diameter_max": 117.4965270602
        }
    },
    "is_potentially_hazardous_asteroid": false,
    "close_approach_data": [
        {
            "close_approach_date": "2002-03-11",
            "close_approach_date_full": "2002-Mar-11 14:18",
            "epoch_date_close_approach": 1015856280000,
            "relative_velocity": {
                "kilometers_per_second": "15.8326352256",
                "kilometers_per_hour": "56997.4868122126",
                "miles_per_hour": "35416.0217361773"
            },
            "miss_distance": {
                "astronomical": "0.0173291065",
                "lunar": "6.7410224285",
                "kilometers": "2592397.421403155",
                "miles": "1610841.061967339"
            },
            "orbiting_body": "Earth"
        },
        {
            "close_approach_date": "2006-09-28",
            "close_approach_date_full": "2006-Sep-28 09:27",
            "epoch_date_close_approach": 1159435620000,
            "relative_velocity": {
                "kilometers_per_second": "15.1297280373",
                "kilometers_per_hour": "54467.0209342746",
                "miles_per_hour": "33843.688646633"
            },
            "miss_distance": {
                "astronomical": "0.0093621131",
                "lunar": "3.6418619959",
                "kilometers": "1400552.178459097",
                "miles": "870262.7690736586"
            },
            "orbiting_body": "Moon"
        },
        {
            "close_approach_date": "2006-09-28",
            "close_approach_date_full": "2006-Sep-28 12:15",
            "epoch_date_close_approach": 1159445700000,
            "relative_velocity": {
                "kilometers_per_second": "16.0743997882",
                "kilometers_per_hour": "57867.8392374602",
                "miles_per_hour": "35956.8248861874"
            },
            "miss_distance": {
                "astronomical": "0.0073041212",
                "lunar": "2.8413031468",
                "kilometers": "1092680.973741844",
                "miles": "678960.4732676872"
            },
            "orbiting_body": "Earth"
        }
    ],
    "orbital_data": {
        "orbit_id": "7",
        "orbit_determination_date": "2017-04-06 09:07:59",
        "first_observation_date": "2006-09-29",
        "last_observation_date": "2006-10-01",
        "data_arc_in_days": 2,
        "observations_used": 13,
        "orbit_uncertainty": "8",
        "minimum_orbit_intersection": ".00514796",
        "jupiter_tisserand_invariant": "4.983",
        "epoch_osculation": "2454008.5",
        "eccentricity": ".5117125108714411",
        "semi_major_axis": "1.25709790718764",
        "inclination": "1.602077935873221",
        "ascending_node_longitude": "195.9728921367806",
        "orbital_period": "514.8160545631139",
        "perihelion_distance": ".613825180689419",
        "perihelion_argument": "71.09716587008509",
        "aphelion_distance": "1.900370633685861",
        "perihelion_time": "2453950.140592830133",
        "mean_anomaly": "40.80950155872902",
        "mean_motion": ".6992788915751768",
        "equinox": "J2000",
        "orbit_class": {
            "orbit_class_type": "APO",
            "orbit_class_description": "Near-Earth asteroid orbits which cross the Earth’s orbit similar to that of 1862 Apollo",
            "orbit_class_range": "a (semi-major axis) > 1.0 AU; q (perihelion) < 1.017 AU"
        }
    },
    "is_sentry_object": false
}